OBJECT_NAME,OBJECT_ID,EPOCH,MEAN_MOTION,ECCENTRICITY,INCLINATION,RA_OF_ASC_NODE,ARG_OF_PERICENTER,MEAN_ANOMALY,EPHEMERIS_TYPE,CLASSIFICATION_TYPE,NORAD_CAT_ID,ELEMENT_SET_NO,REV_AT_EPOCH,BSTAR,MEAN_MOTION_DOT,MEAN_MOTION_DDOT
STARLINK-3744,2022-041AV,2025-05-25T04:02:23.586720,15.08845380,.0001395,53.2185,304.3432,86.4199,273.6953,0,U,52304,999,17230,.79587E-4,.979E-5,0
STARLINK-3724,2022-041AW,2025-05-24T19:00:34.440192,15.08837424,.0001199,53.2182,316.1374,98.5378,261.5750,0,U,52305,999,17089,.83083E-4,.1035E-4,0
STARLINK-3747,2022-041AX,2025-05-24T20:00:10.404864,15.08841199,.0001382,53.2183,305.8462,86.9436,273.1715,0,U,52306,999,17225,.58891E-4,.649E-5,0
STARLINK-3755,2022-041AY,2025-05-24T18:44:39.894720,15.08834657,.0001339,53.2183,316.0816,92.9821,267.1324,0,U,52307,999,17089,.16506E-4,-.25E-6,0
STARLINK-3756,2022-041BA,2025-05-24T18:19:29.610624,15.08835729,.000123,53.2182,306.1593,92.3186,267.7947,0,U,52309,999,17224,.21204E-4,.5E-6,0
STARLINK-3688,2022-041BB,2025-05-24T19:49:35.154048,15.08839697,.0001205,53.2177,305.9445,90.5757,269.5374,0,U,52310,999,17225,.83523E-4,.1042E-4,0
STARLINK-3750,2022-041BC,2025-05-24T19:44:16.732032,15.08846665,.0001312,53.2190,305.8958,87.2899,272.8244,0,U,52311,999,17225,.17453E-3,.2491E-4,0
STARLINK-3752,2022-041BD,2025-05-24T20:21:21.747168,15.08843326,.0001329,53.2177,305.7312,88.2096,271.9048,0,U,52312,999,17226,.50115E-4,.51E-5,0
STARLINK-3749,2022-041BE,2025-05-24T20:26:39.614496,15.08846608,.0001302,53.2180,305.7644,84.7223,275.3918,0,U,52313,999,17226,.76528E-4,.93E-5,0
STARLINK-3889,2022-045A,2025-05-24T18:35:22.867872,15.08836755,.0001434,53.2186,66.1129,85.8924,274.2232,0,U,52331,999,17202,.54185E-4,.574E-5,0
STARLINK-3831,2022-045B,2025-05-25T01:14:12.219648,15.08842741,.0001543,53.2172,64.8750,93.1581,266.9588,0,U,52332,999,17206,.29813E-4,.187E-5,0
STARLINK-3847,2022-045C,2025-05-24T12:24:26.986464,15.08846430,.0001364,53.2175,67.2627,96.1117,264.0031,0,U,52333,999,17197,.78451E-4,.961E-5,0
STARLINK-3880,2022-045D,2025-05-25T04:02:24.105120,15.08841375,.0001412,53.2174,64.3429,90.0160,270.0994,0,U,52334,999,17207,.6208E-4,.7E-5,0
STARLINK-3814,2022-045E,2025-05-24T04:06:19.361952,15.08837114,.0001424,53.2178,68.8194,87.9189,272.1966,0,U,52335,999,17193,-.13264E-4,-.499E-5,0
STARLINK-3823,2022-045F,2025-05-24T17:47:39.892416,15.08831441,.0001593,53.2192,66.0533,99.9432,260.1740,0,U,52336,999,17202,-.11245E-4,-.467E-5,0
STARLINK-3797,2022-045G,2025-05-24T12:19:08.614560,15.08841127,.0001403,53.2181,67.2818,87.2881,272.8271,0,U,52337,999,17198,.45015E-4,.429E-5,0
STARLINK-3792,2022-045J,2025-05-24T04:32:45.057696,15.08841790,.000156,53.2171,68.3785,97.7156,262.4014,0,U,52339,999,17194,.41966E-4,.38E-5,0
STARLINK-3818,2022-045K,2025-05-24T18:47:18.874176,15.08833296,.0001418,53.2195,56.0737,95.5673,264.5481,0,U,52340,999,17215,.99919E-6,-.272E-5,0
STARLINK-3843,2022-045L,2025-05-25T03:35:53.953728,15.08839741,.0001763,53.2178,64.3766,96.9640,263.1553,0,U,52341,999,17208,.40247E-4,.352E-5,0
STARLINK-3850,2022-045M,2025-05-24T17:17:14.712288,15.08833958,.0001621,53.2179,56.4691,94.0721,266.0457,0,U,52342,999,17215,-.45831E-4,-.1017E-4,0
STARLINK-3849,2022-045N,2025-05-24T18:56:35.270304,15.08835566,.0001329,53.2168,66.0427,89.7424,270.3721,0,U,52343,999,17203,.26995E-4,.142E-5,0
STARLINK-3851,2022-045P,2025-05-24T18:36:43.458336,15.08836543,.0001406,53.2178,56.1706,89.8027,270.3127,0,U,52344,999,17216,.26719E-4,.137E-5,0
STARLINK-3852,2022-045Q,2025-05-24T01:45:58.163904,15.08835745,.0001302,53.2176,59.4209,83.5293,276.5847,0,U,52345,999,17204,-.26942E-5,-.331E-5,0
STARLINK-3812,2022-045R,2025-05-24T18:27:29.534112,15.08839380,.0001541,53.2192,56.1425,98.3289,261.7878,0,U,52346,999,17216,.98719E-5,-.131E-5,0
STARLINK-3826,2022-045S,2025-05-25T01:04:56.061120,15.08838857,.0001365,53.2181,54.9024,93.7015,266.4133,0,U,52347,999,17220,-.30929E-4,-.78E-5,0
STARLINK-3829,2022-045T,2025-05-25T00:37:03.427104,15.08841328,.0001624,53.2186,54.9813,91.8071,268.3107,0,U,52348,999,17220,.49243E-4,.496E-5,0
STARLINK-3819,2022-045U,2025-05-24T18:31:24.974112,15.08837471,.0001543,53.2174,56.1212,88.5443,271.5726,0,U,52349,999,17216,.16056E-4,-.32E-6,0
STARLINK-3754,2022-045V,2025-05-24T21:20:59.349120,15.08842259,.0001664,53.2170,55.5924,93.0473,267.0710,0,U,52350,999,17218,-.93095E-5,-.436E-5,0
STARLINK-3838,2022-045X,2025-05-25T00:15:51.771168,15.08839063,.000135,53.2179,55.0475,87.4010,272.7137,0,U,52352,999,17220,.22377E-4,.68E-6,0
STARLINK-3807,2022-045Y,2025-05-25T03:37:14.684160,15.08841597,.0001416,53.2179,54.4198,104.3891,255.7258,0,U,52353,999,17222,-.51777E-4,-.1112E-4,0
