STARLINK-3744           
1 52304U 22041AV  25145.16832855  .00000979  00000+0  79587-4 0  9992
2 52304  53.2185 304.3432 0001395  86.4199 273.6953 15.08845380172304
STARLINK-3724           
1 52305U 22041AW  25144.79206528  .00001035  00000+0  83083-4 0  9993
2 52305  53.2182 316.1374 0001199  98.5378 261.5750 15.08837424170896
STARLINK-3747           
1 52306U 22041AX  25144.83345376  .00000649  00000+0  58891-4 0  9993
2 52306  53.2183 305.8462 0001382  86.9436 273.1715 15.08841199172257
STARLINK-3755           
1 52307U 22041AY  25144.78101730 -.00000025  00000+0  16506-4 0  9998
2 52307  53.2183 316.0816 0001339  92.9821 267.1324 15.08834657170890
STARLINK-3756           
1 52309U 22041BA  25144.76353716  .00000050  00000+0  21204-4 0  9999
2 52309  53.2182 306.1593 0001230  92.3186 267.7947 15.08835729172240
STARLINK-3688           
1 52310U 22041BB  25144.82610132  .00001042  00000+0  83523-4 0  9990
2 52310  53.2177 305.9445 0001205  90.5757 269.5374 15.08839697172258
STARLINK-3750           
1 52311U 22041BC  25144.82241588  .00002491  00000+0  17453-3 0  9993
2 52311  53.2190 305.8958 0001312  87.2899 272.8244 15.08846665172257
STARLINK-3752           
1 52312U 22041BD  25144.84816837  .00000510  00000+0  50115-4 0  9994
2 52312  53.2177 305.7312 0001329  88.2096 271.9048 15.08843326172268
STARLINK-3749           
1 52313U 22041BE  25144.85184739  .00000930  00000+0  76528-4 0  9997
2 52313  53.2180 305.7644 0001302  84.7223 275.3918 15.08846608172265
STARLINK-3889           
1 52331U 22045A   25144.77457023  .00000574  00000+0  54185-4 0  9990
2 52331  53.2186  66.1129 0001434  85.8924 274.2232 15.08836755172026
STARLINK-3831           
1 52332U 22045B   25145.05153032  .00000187  00000+0  29813-4 0  9996
2 52332  53.2172  64.8750 0001543  93.1581 266.9588 15.08842741172067
STARLINK-3847           
1 52333U 22045C   25144.51697901  .00000961  00000+0  78451-4 0  9997
2 52333  53.2175  67.2627 0001364  96.1117 264.0031 15.08846430171970
STARLINK-3880           
1 52334U 22045D   25145.16833455  .00000700  00000+0  62080-4 0  9998
2 52334  53.2174  64.3429 0001412  90.0160 270.0994 15.08841375172073
STARLINK-3814           
1 52335U 22045E   25144.17105743 -.00000499  00000+0 -13264-4 0  9998
2 52335  53.2178  68.8194 0001424  87.9189 272.1966 15.08837114171937
STARLINK-3823           
1 52336U 22045F   25144.74143394 -.00000467  00000+0 -11245-4 0  9998
2 52336  53.2192  66.0533 0001593  99.9432 260.1740 15.08831441172027
STARLINK-3797           
1 52337U 22045G   25144.51329415  .00000429  00000+0  45015-4 0  9992
2 52337  53.2181  67.2818 0001403  87.2881 272.8271 15.08841127171988
STARLINK-3792           
1 52339U 22045J   25144.18941039  .00000380  00000+0  41966-4 0  9996
2 52339  53.2171  68.3785 0001560  97.7156 262.4014 15.08841790171941
STARLINK-3818           
1 52340U 22045K   25144.78285734 -.00000272  00000+0  99919-6 0  9991
2 52340  53.2195  56.0737 0001418  95.5673 264.5481 15.08833296172159
STARLINK-3843           
1 52341U 22045L   25145.14993002  .00000352  00000+0  40247-4 0  9993
2 52341  53.2178  64.3766 0001763  96.9640 263.1553 15.08839741172085
STARLINK-3850           
1 52342U 22045M   25144.72030917 -.00001017  00000+0 -45831-4 0  9999
2 52342  53.2179  56.4691 0001621  94.0721 266.0457 15.08833958172155
STARLINK-3849           
1 52343U 22045N   25144.78929711  .00000142  00000+0  26995-4 0  9991
2 52343  53.2168  66.0427 0001329  89.7424 270.3721 15.08835566172030
STARLINK-3851           
1 52344U 22045P   25144.77550299  .00000137  00000+0  26719-4 0  9990
2 52344  53.2178  56.1706 0001406  89.8027 270.3127 15.08836543172168
STARLINK-3852           
1 52345U 22045Q   25144.07358986 -.00000331  00000+0 -26942-5 0  9990
2 52345  53.2176  59.4209 0001302  83.5293 276.5847 15.08835745172049
STARLINK-3812           
1 52346U 22045R   25144.76909183 -.00000131  00000+0  98719-5 0  9996
2 52346  53.2192  56.1425 0001541  98.3289 261.7878 15.08839380172168
STARLINK-3826           
1 52347U 22045S   25145.04509330 -.00000780  00000+0 -30929-4 0  9998
2 52347  53.2181  54.9024 0001365  93.7015 266.4133 15.08838857172207
STARLINK-3829           
1 52348U 22045T   25145.02573411  .00000496  00000+0  49243-4 0  9999
2 52348  53.2186  54.9813 0001624  91.8071 268.3107 15.08841328172207
STARLINK-3819           
1 52349U 22045U   25144.77181683 -.00000032  00000+0  16056-4 0  9990
2 52349  53.2174  56.1212 0001543  88.5443 271.5726 15.08837471172160
STARLINK-3754           
1 52350U 22045V   25144.88957580 -.00000436  00000+0 -93095-5 0  9999
2 52350  53.2170  55.5924 0001664  93.0473 267.0710 15.08842259172184
STARLINK-3838           
1 52352U 22045X   25145.01101587  .00000068  00000+0  22377-4 0  9998
2 52352  53.2179  55.0475 0001350  87.4010 272.7137 15.08839063172205
STARLINK-3807           
1 52353U 22045Y   25145.15086440 -.00001112  00000+0 -51777-4 0  9993
2 52353  53.2179  54.4198 0001416 104.3891 255.7258 15.08841597172222
